GSAT0101 (GALILEO-PFM)  
1 37846U 11060A   25311.11926948 -.00000076  00000+0  00000+0 0  9990
2 37846  57.0606 347.7875 0002128 299.1963  60.8430  1.70475518 87337
GSAT0102 (GALILEO-FM2)  
1 37847U 11060B   25312.21922765 -.00000081  00000+0  00000+0 0  9992
2 37847  57.0613 347.7580 0004136 299.8022  60.7461  1.70475722 87366
GSAT0103 (GALILEO-FM3)  
1 38857U 12055A   25312.33242133  .00000040  00000+0  00000+0 0  9990
2 38857  55.6715 107.6110 0001734 270.4549  89.5059  1.70473332 81245
GSAT0201 (GALILEO 5)    
1 40128U 14050A   25309.73755814 -.00000046  00000+0  00000+0 0  9993
2 40128  49.1195 282.5705 1644473 170.8794 192.5321  1.85519424 74171
GSAT0202 (GALILEO 6)    
1 40129U 14050B   25312.14989747 -.00000042  00000+0  00000+0 0  9993
2 40129  49.1326 281.5554 1645348 171.7274 191.3789  1.85520206 76384
GSAT0203 (GALILEO 7)    
1 40544U 15017A   25312.07061856 -.00000080  00000+0  00000+0 0  9994
2 40544  56.8541 347.6264 0006217 261.1954  98.7906  1.70475944 65432
GSAT0204 (GALILEO 8)    
1 40545U 15017B   25311.15284165 -.00000077  00000+0  00000+0 0  9999
2 40545  56.8607 347.6691 0006108 252.3269 107.6664  1.70475467 28463
GSAT0205 (GALILEO 9)    
1 40889U 15045A   25312.09428411  .00000001  00000+0  00000+0 0  9995
2 40889  55.0167 227.7151 0005184  32.2540 327.8214  1.70472785 63247
GSAT0206 (GALILEO 10)   
1 40890U 15045B   25311.14175640  .00000004  00000+0  00000+0 0  9998
2 40890  55.0165 227.7366 0003132  22.5111 337.5426  1.70472821 63257
GSAT0209 (GALILEO 12)   
1 41174U 15079A   25312.48334615  .00000039  00000+0  00000+0 0  9996
2 41174  55.6917 107.3210 0002487   9.7087 350.2763  1.70474177 61010
GSAT0208 (GALILEO 11)   
1 41175U 15079B   25310.35715630  .00000048  00000+0  00000+0 0  9991
2 41175  55.6890 107.3763 0002145  23.4728 336.5246  1.70474029 61390
GSAT0211 (GALILEO 14)   
1 41549U 16030A   25311.06748761  .00000005  00000+0  00000+0 0  9997
2 41549  55.1659 227.8048 0003574 353.1969   6.8377  1.70472857 58883
GSAT0210 (GALILEO 13)   
1 41550U 16030B   25311.91159765  .00000002  00000+0  00000+0 0  9990
2 41550  55.1649 227.7797 0002077 247.8730 112.1480  1.70473366 58899
GSAT0207 (GALILEO 15)   
1 41859U 16069A   25312.19009514  .00000038  00000+0  00000+0 0  9990
2 41859  55.3612 107.2066 0001976 341.4168  18.5564  1.70474099 55632
GSAT0212 (GALILEO 16)   
1 41860U 16069B   25312.04380044  .00000039  00000+0  00000+0 0  9997
2 41860  55.3585 107.2061 0002670  41.9785 318.0226  1.70474325 55889
GSAT0213 (GALILEO 17)   
1 41861U 16069C   25312.41141796  .00000038  00000+0  00000+0 0  9997
2 41861  55.3609 107.2035 0001583 291.4058  68.5576  1.70474630 55755
GSAT0214 (GALILEO 18)   
1 41862U 16069D   25311.97080254  .00000039  00000+0  00000+0 0  9990
2 41862  55.3593 107.2086 0000718 317.2242  42.7510  1.70474406 55871
GSAT0215 (GALILEO 19)   
1 43055U 17079A   25311.87415973  .00000002  00000+0  00000+0 0  9997
2 43055  55.1433 227.5974 0001783 301.8141  58.2119  1.70473599 49210
GSAT0216 (GALILEO 20)   
1 43056U 17079B   25307.47274646 -.00000002  00000+0  00000+0 0  9990
2 43056  55.1456 227.7184 0003371 297.8376  62.1457  1.70473739 49158
GSAT0217 (GALILEO 21)   
1 43057U 17079C   25311.79957585  .00000003  00000+0  00000+0 0  9991
2 43057  55.1419 227.5975 0003072 321.5483  38.4729  1.70473649 49211
GSAT0218 (GALILEO 22)   
1 43058U 17079D   25309.67327793  .00000005  00000+0  00000+0 0  9990
2 43058  55.1428 227.6536 0003656 292.3617  67.6308  1.70473685 49204
GSAT0221 (GALILEO 25)   
1 43564U 18060A   25311.33574722 -.00000077  00000+0  00000+0 0  9995
2 43564  57.2355 347.7750 0006211 273.6186  86.3703  1.70475936 45386
GSAT0222 (GALILEO 26)   
1 43565U 18060B   25310.96845075 -.00000075  00000+0  00000+0 0  9994
2 43565  57.2392 347.7880 0006016 252.8089 107.1866  1.70475588 45426
GSAT0219 (GALILEO 23)   
1 43566U 18060C   25312.36280035 -.00000081  00000+0  00000+0 0  9997
2 43566  57.2378 347.7518 0005336 277.6414  82.3539  1.70475786 45421
GSAT0220 (GALILEO 24)   
1 43567U 18060D   25310.23738213 -.00000072  00000+0  00000+0 0  9998
2 43567  57.2378 347.8096 0005702 272.2639  87.7349  1.70475573 45377
GSAT0223 (GALILEO 27)   
1 49809U 21116A   25311.24955612 -.00000076  00000+0  00000+0 0  9999
2 49809  57.2274 347.6730 0004684 235.6538 116.2691  1.70475599 24394
GSAT0224 (GALILEO 28)   
1 49810U 21116B   25312.41476468 -.00000081  00000+0  00000+0 0  9994
2 49810  57.2276 347.6399 0004009 241.5687 218.0526  1.70475739 24441
GSAT0225 (GALILEO 29)   
1 59598U 24079A   25312.26572640  .00000038  00000+0  00000+0 0  9992
2 59598  54.9796 107.2586 0002117 156.3254 204.1725  1.70474318  9559
GSAT0227 (GALILEO 30)   
1 59600U 24079C   25308.92885542  .00000059  00000+0  00000+0 0  9995
2 59600  54.9728 107.3514 0003904 108.5170 251.5244  1.70474458  9547
GSAT0232 (GALILEO 32)   
1 61182U 24167A   25312.43037296  .00000000  00000+0  00000+0 0  9993
2 61182  55.2536 227.3722 0002977 227.5341 316.1834  1.70473089  7114
GSAT0226 (GALILEO 31)   
1 61183U 24167B   25312.06355167  .00000002  00000+0  00000+0 0  9995
2 61183  55.2530 227.3876 0000768 204.6092 226.6272  1.70473148  7087
